{"type": "FeatureCollection", "features": [ {"type": "Feature", "properties": {"norad_id": 31442, "name": "FENGYUN 1C DEB", "group": "fengyun-1c-debris", "lat": 68.77050093747084, "lon": 55.82662122596911, "alt_km": 757.1291454822331, "timestamp": "2025-12-18T15:47:11.505756+00:00", "meta": {"OBJECT_NAME": "FENGYUN 1C DEB", "OBJECT_ID": "1999-025BUE", "EPOCH": "2025-12-13T23:15:38.407392", "MEAN_MOTION": 14.33932663, "ECCENTRICITY": 0.0079016, "INCLINATION": 98.5308, "RA_OF_ASC_NODE": 73.932, "ARG_OF_PERICENTER": 9.0794, "MEAN_ANOMALY": 351.1798, "EPHEMERIS_TYPE": 0, "CLASSIFICATION_TYPE": "U", "NORAD_CAT_ID": 31442, "ELEMENT_SET_NO": 999, "REV_AT_EPOCH": 97378, "BSTAR": 0.00046189361, "MEAN_MOTION_DOT": 1.29e-05, "MEAN_MOTION_DDOT": 0}, "tle": {"line1": "1 31442U 99025BUE 25347.96919453  .00001290  00000+0  46189-3 0  9998", "line2": "2 31442  98.5308  73.9320 0079016   9.0794 351.1798 14.33932663973783"}}, "geometry": {"type": "Point", "coordinates": [55.82662122596911, 68.77050093747084]}}, {"type": "Feature", "properties": {"norad_id": 31443, "name": "FENGYUN 1C DEB", "group": "fengyun-1c-debris", "lat": 80.6721528326322, "lon": -6.200509028428331, "alt_km": 588.6141667962929, "timestamp": "2025-12-18T15:47:11.505766+00:00", "meta": {"OBJECT_NAME": "FENGYUN 1C DEB", "OBJECT_ID": "1999-025BUF", "EPOCH": "2025-12-17T12:51:25.393248", "MEAN_MOTION": 14.4873432, "ECCENTRICITY": 0.01913288, "INCLINATION": 99.2122, "RA_OF_ASC_NODE": 91.4491, "ARG_OF_PERICENTER": 83.9466, "MEAN_ANOMALY": 278.3489, "EPHEMERIS_TYPE": 0, "CLASSIFICATION_TYPE": "U", "NORAD_CAT_ID": 31443, "ELEMENT_SET_NO": 999, "REV_AT_EPOCH": 67011, "BSTAR": 0.00083671512, "MEAN_MOTION_DOT": 3.923e-05, "MEAN_MOTION_DDOT": 0}, "tle": {"line1": "1 31443U 99025BUF 25351.53571057  .00003923  00000+0  83672-3 0  9994", "line2": "2 31443  99.2122  91.4491 0191328  83.9466 278.3489 14.48734320670112"}}, "geometry": {"type": "Point", "coordinates": [-6.200509028428331, 80.6721528326322]}}, {"type": "Feature", "properties": {"norad_id": 31444, "name": "FENGYUN 1C DEB", "group": "fengyun-1c-debris", "lat": 25.423135083920155, "lon": 119.53442191127563, "alt_km": 667.5245185929816, "timestamp": "2025-12-18T15:47:11.505776+00:00", "meta": {"OBJECT_NAME": "FENGYUN 1C DEB", "OBJECT_ID": "1999-025BUG", "EPOCH": "2025-12-15T13:34:49.333728", "MEAN_MOTION": 14.69963952, "ECCENTRICITY": 0.00627859, "INCLINATION": 98.9275, "RA_OF_ASC_NODE": 291.8692, "ARG_OF_PERICENTER": 63.9063, "MEAN_ANOMALY": 296.8584, "EPHEMERIS_TYPE": 0, "CLASSIFICATION_TYPE": "U", "NORAD_CAT_ID": 31444, "ELEMENT_SET_NO": 999, "REV_AT_EPOCH": 97530, "BSTAR": 0.00094331949, "MEAN_MOTION_DOT": 5.769e-05, "MEAN_MOTION_DDOT": 0}, "tle": {"line1": "1 31444U 99025BUG 25349.56584877  .00005769  00000+0  94332-3 0  9994", "line2": "2 31444  98.9275 291.8692 0062785  63.9063 296.8584 14.69963952975300"}}, "geometry": {"type": "Point", "coordinates": [119.53442191127563, 25.423135083920155]}}, {"type": "Feature", "properties": {"norad_id": 31447, "name": "FENGYUN 1C DEB", "group": "fengyun-1c-debris", "lat": -64.87119614722022, "lon": 53.77927399784132, "alt_km": 699.1817364400104, "timestamp": "2025-12-18T15:47:11.505786+00:00", "meta": {"OBJECT_NAME": "FENGYUN 1C DEB", "OBJECT_ID": "1999-025BUK", "EPOCH": "2025-12-14T21:01:38.356896", "MEAN_MOTION": 14.2403744, "ECCENTRICITY": 0.02304397, "INCLINATION": 98.9919, "RA_OF_ASC_NODE": 30.1793, "ARG_OF_PERICENTER": 349.1545, "MEAN_ANOMALY": 10.471, "EPHEMERIS_TYPE": 0, "CLASSIFICATION_TYPE": "U", "NORAD_CAT_ID": 31447, "ELEMENT_SET_NO": 999, "REV_AT_EPOCH": 64882, "BSTAR": 0.00018562598, "MEAN_MOTION_DOT": 5.08e-06, "MEAN_MOTION_DDOT": 0}, "tle": {"line1": "1 31447U 99025BUK 25348.87613839  .00000508  00000+0  18563-3 0  9999", "line2": "2 31447  98.9919  30.1793 0230439 349.1545  10.4710 14.24037440648821"}}, "geometry": {"type": "Point", "coordinates": [53.77927399784132, -64.87119614722022]}}, {"type": "Feature", "properties": {"norad_id": 31448, "name": "FENGYUN 1C DEB", "group": "fengyun-1c-debris", "lat": 30.099783441186386, "lon": -1.1845569836073382, "alt_km": 835.9600992157903, "timestamp": "2025-12-18T15:47:11.505796+00:00", "meta": {"OBJECT_NAME": "FENGYUN 1C DEB", "OBJECT_ID": "1999-025BUL", "EPOCH": "2025-12-11T07:02:55.403520", "MEAN_MOTION": 14.278066, "ECCENTRICITY": 0.00588763, "INCLINATION": 98.5011, "RA_OF_ASC_NODE": 356.6233, "ARG_OF_PERICENTER": 208.3666, "MEAN_ANOMALY": 151.4306, "EPHEMERIS_TYPE": 0, "CLASSIFICATION_TYPE": "U", "NORAD_CAT_ID": 31448, "ELEMENT_SET_NO": 999, "REV_AT_EPOCH": 64283, "BSTAR": 0.0011152887, "MEAN_MOTION_DOT": 2.766e-05, "MEAN_MOTION_DDOT": 0}, "tle": {"line1": "1 31448U 99025BUL 25345.29369680  .00002766  00000+0  11153-2 0  9990", "line2": "2 31448  98.5011 356.6233 0058876 208.3666 151.4306 14.27806600642836"}}, "geometry": {"type": "Point", "coordinates": [-1.1845569836073382, 30.099783441186386]}}, {"type": "Feature", "properties": {"norad_id": 31449, "name": "FENGYUN 1C DEB", "group": "fengyun-1c-debris", "lat": 41.2784600494226, "lon": -121.29881469897099, "alt_km": 815.3593032617364, "timestamp": "2025-12-18T15:47:11.505806+00:00", "meta": {"OBJECT_NAME": "FENGYUN 1C DEB", "OBJECT_ID": "1999-025BUM", "EPOCH": "2025-12-10T21:12:43.510752", "MEAN_MOTION": 14.33705066, "ECCENTRICITY": 0.0144053, "INCLINATION": 98.5553, "RA_OF_ASC_NODE": 43.4188, "ARG_OF_PERICENTER": 274.279, "MEAN_ANOMALY": 84.1945, "EPHEMERIS_TYPE": 0, "CLASSIFICATION_TYPE": "U", "NORAD_CAT_ID": 31449, "ELEMENT_SET_NO": 999, "REV_AT_EPOCH": 97610, "BSTAR": 0.00033048, "MEAN_MOTION_DOT": 9.81e-06, "MEAN_MOTION_DDOT": 0}, "tle": {"line1": "1 31449U 99025BUM 25344.88383693  .00000981  00000+0  33048-3 0  9990", "line2": "2 31449  98.5553  43.4188 0144053 274.2790  84.1945 14.33705066976103"}}, "geometry": {"type": "Point", "coordinates": [-121.29881469897099, 41.2784600494226]}}, {"type": "Feature", "properties": {"norad_id": 31451, "name": "FENGYUN 1C DEB", "group": "fengyun-1c-debris", "lat": -23.48184294076566, "lon": -149.23168400609006, "alt_km": 829.9636098409428, "timestamp": "2025-12-18T15:47:11.505817+00:00", "meta": {"OBJECT_NAME": "FENGYUN 1C DEB", "OBJECT_ID": "1999-025BUP", "EPOCH": "2025-12-17T01:35:52.740960", "MEAN_MOTION": 14.13630438, "ECCENTRICITY": 0.00314143, "INCLINATION": 98.7632, "RA_OF_ASC_NODE": 33.0517, "ARG_OF_PERICENTER": 198.9237, "MEAN_ANOMALY": 191.5319, "EPHEMERIS_TYPE": 0, "CLASSIFICATION_TYPE": "U", "NORAD_CAT_ID": 31451, "ELEMENT_SET_NO": 999, "REV_AT_EPOCH": 96071, "BSTAR": 0.00034950868, "MEAN_MOTION_DOT": 6.19e-06, "MEAN_MOTION_DDOT": 0}, "tle": {"line1": "1 31451U 99025BUP 25351.06658265  .00000619  00000+0  34951-3 0  9993", "line2": "2 31451  98.7632  33.0517 0031414 198.9237 191.5319 14.13630438960717"}}, "geometry": {"type": "Point", "coordinates": [-149.23168400609006, -23.48184294076566]}}, {"type": "Feature", "properties": {"norad_id": 31452, "name": "FENGYUN 1C DEB", "group": "fengyun-1c-debris", "lat": 45.329939494225044, "lon": 168.29162462925055, "alt_km": 810.4342235921285, "timestamp": "2025-12-18T15:47:11.505827+00:00", "meta": {"OBJECT_NAME": "FENGYUN 1C DEB", "OBJECT_ID": "1999-025BUQ", "EPOCH": "2025-12-17T05:13:17.668704", "MEAN_MOTION": 14.15174584, "ECCENTRICITY": 0.00409624, "INCLINATION": 98.6577, "RA_OF_ASC_NODE": 338.0277, "ARG_OF_PERICENTER": 115.448, "MEAN_ANOMALY": 245.0941, "EPHEMERIS_TYPE": 0, "CLASSIFICATION_TYPE": "U", "NORAD_CAT_ID": 31452, "ELEMENT_SET_NO": 999, "REV_AT_EPOCH": 96269, "BSTAR": 0.00032143342, "MEAN_MOTION_DOT": 5.87e-06, "MEAN_MOTION_DDOT": 0}, "tle": {"line1": "1 31452U 99025BUQ 25351.21756561  .00000587  00000+0  32143-3 0  9994", "line2": "2 31452  98.6577 338.0277 0040962 115.4480 245.0941 14.15174584962690"}}, "geometry": {"type": "Point", "coordinates": [168.29162462925055, 45.329939494225044]}}, {"type": "Feature", "properties": {"norad_id": 31455, "name": "FENGYUN 1C DEB", "group": "fengyun-1c-debris", "lat": 32.196787040793474, "lon": -24.82302371360009, "alt_km": 694.4852975217573, "timestamp": "2025-12-18T15:47:11.505838+00:00", "meta": {"OBJECT_NAME": "FENGYUN 1C DEB", "OBJECT_ID": "1999-025BUT", "EPOCH": "2025-12-15T05:58:31.432224", "MEAN_MOTION": 14.11432558, "ECCENTRICITY": 0.02185525, "INCLINATION": 98.5743, "RA_OF_ASC_NODE": 337.3687, "ARG_OF_PERICENTER": 44.1098, "MEAN_ANOMALY": 317.7277, "EPHEMERIS_TYPE": 0, "CLASSIFICATION_TYPE": "U", "NORAD_CAT_ID": 31455, "ELEMENT_SET_NO": 999, "REV_AT_EPOCH": 96139, "BSTAR": 0.00031840513, "MEAN_MOTION_DOT": 6.8e-06, "MEAN_MOTION_DDOT": 0}, "tle": {"line1": "1 31455U 99025BUT 25349.24897491  .00000680  00000+0  31841-3 0  9993", "line2": "2 31455  98.5743 337.3687 0218552  44.1098 317.7277 14.11432558961398"}}, "geometry": {"type": "Point", "coordinates": [-24.82302371360009, 32.196787040793474]}}, {"type": "Feature", "properties": {"norad_id": 31456, "name": "FENGYUN 1C DEB", "group": "fengyun-1c-debris", "lat": -44.98908792231184, "lon": 103.71513914214474, "alt_km": 711.2982784470087, "timestamp": "2025-12-18T15:47:11.505848+00:00", "meta": {"OBJECT_NAME": "FENGYUN 1C DEB", "OBJECT_ID": "1999-025BUU", "EPOCH": "2025-12-17T13:21:30.732480", "MEAN_MOTION": 14.42423971, "ECCENTRICITY": 0.00676593, "INCLINATION": 98.5778, "RA_OF_ASC_NODE": 93.9301, "ARG_OF_PERICENTER": 299.6577, "MEAN_ANOMALY": 59.7886, "EPHEMERIS_TYPE": 0, "CLASSIFICATION_TYPE": "U", "NORAD_CAT_ID": 31456, "ELEMENT_SET_NO": 999, "REV_AT_EPOCH": 97536, "BSTAR": 0.0006424571, "MEAN_MOTION_DOT": 2.138e-05, "MEAN_MOTION_DDOT": 0}, "tle": {"line1": "1 31456U 99025BUU 25351.55660570  .00002138  00000+0  64246-3 0  9992", "line2": "2 31456  98.5778  93.9301 0067659 299.6577  59.7886 14.42423971975368"}}, "geometry": {"type": "Point", "coordinates": [103.71513914214474, -44.98908792231184]}}]}